start=new Date('2022-09-26T00:00:00.000Z').valueOf();
sats=[{"EPHEMERIS_TYPE":"0","PERIAPSIS":"546.200","REF_FRAME":"TEME","FILE":"3583858","NORAD_CAT_ID":"46349","OBJECT_ID":"2020-062AA","LAUNCH_DATE":"2020-09-03","ARG_OF_PERICENTER":"58.5668","SITE":"AFETR","CENTER_NAME":"EARTH","PERIOD":"95.593","TIME_SYSTEM":"UTC","INCLINATION":"53.0546","MEAN_MOTION_DOT":"0.00000205","RCS_SIZE":"LARGE","MEAN_MOTION_DDOT":"0.0000000000000","GP_ID":"213510742","TLE_LINE2":"2 46349  53.0546 230.1691 0001504  58.5668 301.5468 15.06390911115134","MEAN_ANOMALY":"301.5468","OBJECT_TYPE":"PAYLOAD","OBJECT_NAME":"STARLINK-1575","REV_AT_EPOCH":"11513","MEAN_ELEMENT_THEORY":"SGP4","MEAN_MOTION":"15.06390911","EPOCH":"2022-09-26T04:50:27.674016","ECCENTRICITY":"0.00015040","ELEMENT_SET_NO":"999","COUNTRY_CODE":"US","DECAY_DATE":null,"APOAPSIS":"548.283","SEMIMAJOR_AXIS":"6925.376","TLE_LINE1":"1 46349U 20062AA  22269.20170919  .00000205  00000-0  32696-4 0  9993","BSTAR":"0.00003269600000","CLASSIFICATION_TYPE":"U","RA_OF_ASC_NODE":"230.1691"},{"MEAN_MOTION_DDOT":"0.0000000000000","GP_ID":"213510860","TLE_LINE2":"2 46350  53.0539 276.2340 0001674  55.3790 304.7357 15.06409844114473","REV_AT_EPOCH":"11447","OBJECT_NAME":"STARLINK-1617","OBJECT_TYPE":"PAYLOAD","MEAN_ANOMALY":"304.7357","EPOCH":"2022-09-25T23:12:45.232416","ECCENTRICITY":"0.00016740","MEAN_MOTION":"15.06409844","ELEMENT_SET_NO":"999","MEAN_ELEMENT_THEORY":"SGP4","CLASSIFICATION_TYPE":"U","RA_OF_ASC_NODE":"276.2340","COUNTRY_CODE":"US","DECAY_DATE":null,"BSTAR":"0.00003227300000","TLE_LINE1":"1 46350U 20062AB  22268.96719019  .00000199  00000-0  32273-4 0  9990","SEMIMAJOR_AXIS":"6925.318","APOAPSIS":"548.343","REF_FRAME":"TEME","PERIAPSIS":"546.024","EPHEMERIS_TYPE":"0","ARG_OF_PERICENTER":"55.3790","LAUNCH_DATE":"2020-09-03","OBJECT_ID":"2020-062AB","FILE":"3583870","NORAD_CAT_ID":"46350","PERIOD":"95.592","SITE":"AFETR","CENTER_NAME":"EARTH","RCS_SIZE":"LARGE","TIME_SYSTEM":"UTC","MEAN_MOTION_DOT":"0.00000199","INCLINATION":"53.0539"},{"COUNTRY_CODE":"US","DECAY_DATE":null,"BSTAR":"0.00004234300000","TLE_LINE1":"1 46351U 20062AC  22268.97176937  .00000349  00000-0  42343-4 0  9994","SEMIMAJOR_AXIS":"6925.342","APOAPSIS":"548.333","CLASSIFICATION_TYPE":"U","RA_OF_ASC_NODE":"256.1808","MEAN_ELEMENT_THEORY":"SGP4","EPOCH":"2022-09-25T23:19:20.873568","ECCENTRICITY":"0.00016260","MEAN_MOTION":"15.06402217","ELEMENT_SET_NO":"999","OBJECT_TYPE":"PAYLOAD","MEAN_ANOMALY":"290.1984","OBJECT_NAME":"STARLINK-1646","REV_AT_EPOCH":"11475","MEAN_MOTION_DDOT":"0.0000000000000","GP_ID":"213510865","TLE_LINE2":"2 46351  53.0546 256.1808 0001626  69.9180 290.1984 15.06402217114751","TIME_SYSTEM":"UTC","INCLINATION":"53.0546","MEAN_MOTION_DOT":"0.00000349","RCS_SIZE":"LARGE","SITE":"AFETR","CENTER_NAME":"EARTH","PERIOD":"95.592","FILE":"3583870","NORAD_CAT_ID":"46351","ARG_OF_PERICENTER":"69.9180","OBJECT_ID":"2020-062AC","LAUNCH_DATE":"2020-09-03","EPHEMERIS_TYPE":"0","REF_FRAME":"TEME","PERIAPSIS":"546.081"},{"MEAN_ELEMENT_THEORY":"SGP4","EPOCH":"2022-09-25T06:58:47.604000","ECCENTRICITY":"0.00013170","MEAN_MOTION":"15.06393914","ELEMENT_SET_NO":"999","COUNTRY_CODE":"US","DECAY_DATE":null,"TLE_LINE1":"1 46352U 20062AD  22268.29082875  .00001364  00000-0  11048-3 0  9992","SEMIMAJOR_AXIS":"6925.367","BSTAR":"0.00011048000000","APOAPSIS":"548.144","CLASSIFICATION_TYPE":"U","RA_OF_ASC_NODE":"259.2631","MEAN_MOTION_DDOT":"0.0000000000000","GP_ID":"213442486","TLE_LINE2":"2 46352  53.0553 259.2631 0001317  69.3631 290.7499 15.06393914114479","OBJECT_TYPE":"PAYLOAD","MEAN_ANOMALY":"290.7499","REV_AT_EPOCH":"11447","OBJECT_NAME":"STARLINK-1653","SITE":"AFETR","CENTER_NAME":"EARTH","PERIOD":"95.593","TIME_SYSTEM":"UTC","INCLINATION":"53.0553","MEAN_MOTION_DOT":"0.00001364","RCS_SIZE":"LARGE","EPHEMERIS_TYPE":"0","REF_FRAME":"TEME","PERIAPSIS":"546.320","NORAD_CAT_ID":"46352","FILE":"3583351","ARG_OF_PERICENTER":"69.3631","OBJECT_ID":"2020-062AD","LAUNCH_DATE":"2020-09-03"},{"RCS_SIZE":"LARGE","MEAN_MOTION_DOT":"0.00003481","INCLINATION":"53.0526","TIME_SYSTEM":"UTC","PERIOD":"95.592","CENTER_NAME":"EARTH","SITE":"AFETR","LAUNCH_DATE":"2020-09-03","OBJECT_ID":"2020-062AE","ARG_OF_PERICENTER":"72.2598","FILE":"3583351","NORAD_CAT_ID":"46353","PERIAPSIS":"546.092","REF_FRAME":"TEME","EPHEMERIS_TYPE":"0","RA_OF_ASC_NODE":"278.9774","CLASSIFICATION_TYPE":"U","APOAPSIS":"548.287","TLE_LINE1":"1 46353U 20062AE  22268.35531873  .00003481  00000-0  25243-3 0  9991","BSTAR":"0.00025243000000","SEMIMAJOR_AXIS":"6925.325","COUNTRY_CODE":"US","DECAY_DATE":null,"ELEMENT_SET_NO":"999","MEAN_MOTION":"15.06407806","ECCENTRICITY":"0.00015850","EPOCH":"2022-09-25T08:31:39.538272","MEAN_ELEMENT_THEORY":"SGP4","REV_AT_EPOCH":"11419","OBJECT_NAME":"STARLINK-1656","MEAN_ANOMALY":"287.8564","OBJECT_TYPE":"PAYLOAD","GP_ID":"213442736","TLE_LINE2":"2 46353  53.0526 278.9774 0001585  72.2598 287.8564 15.06407806114193","MEAN_MOTION_DDOT":"0.0000000000000"},{"CLASSIFICATION_TYPE":"U","RA_OF_ASC_NODE":"279.0128","DECAY_DATE":null,"COUNTRY_CODE":"US","APOAPSIS":"548.400","BSTAR":"-0.00003976600000","TLE_LINE1":"1 46354U 20062AF  22268.34426889 -.00000874  00000-0 -39766-4 0  9992","SEMIMAJOR_AXIS":"6925.357","MEAN_MOTION":"15.06397102","EPOCH":"2022-09-25T08:15:44.832096","ECCENTRICITY":"0.00017010","ELEMENT_SET_NO":"999","MEAN_ELEMENT_THEORY":"SGP4","REV_AT_EPOCH":"11419","OBJECT_NAME":"STARLINK-1657","MEAN_ANOMALY":"296.3594","OBJECT_TYPE":"PAYLOAD","MEAN_MOTION_DDOT":"0.0000000000000","GP_ID":"213441986","TLE_LINE2":"2 46354  53.0540 279.0128 0001701  63.7569 296.3594 15.06397102114193","RCS_SIZE":"LARGE","TIME_SYSTEM":"UTC","INCLINATION":"53.0540","MEAN_MOTION_DOT":"-0.00000874","PERIOD":"95.592","SITE":"AFETR","CENTER_NAME":"EARTH","LAUNCH_DATE":"2020-09-03","OBJECT_ID":"2020-062AF","ARG_OF_PERICENTER":"63.7569","FILE":"3583351","NORAD_CAT_ID":"46354","PERIAPSIS":"546.044","REF_FRAME":"TEME","EPHEMERIS_TYPE":"0"},{"FILE":"3583351","NORAD_CAT_ID":"46355","LAUNCH_DATE":"2020-09-03","OBJECT_ID":"2020-062AG","ARG_OF_PERICENTER":"74.1791","EPHEMERIS_TYPE":"0","REF_FRAME":"TEME","PERIAPSIS":"546.268","INCLINATION":"53.0537","MEAN_MOTION_DOT":"0.00001584","TIME_SYSTEM":"UTC","RCS_SIZE":"LARGE","CENTER_NAME":"EARTH","SITE":"AFETR","PERIOD":"95.592","MEAN_ANOMALY":"285.9347","OBJECT_TYPE":"PAYLOAD","REV_AT_EPOCH":"11419","OBJECT_NAME":"STARLINK-1661","TLE_LINE2":"2 46355  53.0537 279.1461 0001353  74.1791 285.9347 15.06402677114191","GP_ID":"213442236","MEAN_MOTION_DDOT":"0.0000000000000","APOAPSIS":"548.142","TLE_LINE1":"1 46355U 20062AG  22268.31845872  .00001584  00000-0  12522-3 0  9994","BSTAR":"0.00012522000000","SEMIMAJOR_AXIS":"6925.340","COUNTRY_CODE":"US","DECAY_DATE":null,"RA_OF_ASC_NODE":"279.1461","CLASSIFICATION_TYPE":"U","MEAN_ELEMENT_THEORY":"SGP4","ELEMENT_SET_NO":"999","MEAN_MOTION":"15.06402677","EPOCH":"2022-09-25T07:38:34.833408","ECCENTRICITY":"0.00013530"},{"ARG_OF_PERICENTER":"105.4133","LAUNCH_DATE":"2020-09-03","OBJECT_ID":"2020-062AH","FILE":"3583351","NORAD_CAT_ID":"46356","REF_FRAME":"TEME","PERIAPSIS":"546.082","EPHEMERIS_TYPE":"0","RCS_SIZE":"LARGE","INCLINATION":"53.0563","MEAN_MOTION_DOT":"0.00001303","TIME_SYSTEM":"UTC","PERIOD":"95.592","CENTER_NAME":"EARTH","SITE":"AFETR","OBJECT_NAME":"STARLINK-1665","REV_AT_EPOCH":"11418","OBJECT_TYPE":"PAYLOAD","MEAN_ANOMALY":"254.7037","TLE_LINE2":"2 46356  53.0563 279.3875 0001638 105.4133 254.7037 15.06399074114181","GP_ID":"213442986","MEAN_MOTION_DDOT":"0.0000000000000","RA_OF_ASC_NODE":"279.3875","CLASSIFICATION_TYPE":"U","TLE_LINE1":"1 46356U 20062AH  22268.26222363  .00001303  00000-0  10639-3 0  9999","SEMIMAJOR_AXIS":"6925.351","BSTAR":"0.00010639000000","APOAPSIS":"548.351","DECAY_DATE":null,"COUNTRY_CODE":"US","ELEMENT_SET_NO":"999","EPOCH":"2022-09-25T06:17:36.121632","ECCENTRICITY":"0.00016380","MEAN_MOTION":"15.06399074","MEAN_ELEMENT_THEORY":"SGP4"},{"DECAY_DATE":null,"COUNTRY_CODE":"US","TLE_LINE1":"1 46357U 20062AJ  22268.26132690  .00002103  00000-0  16003-3 0  9993","SEMIMAJOR_AXIS":"6925.335","BSTAR":"0.00016003000000","APOAPSIS":"548.266","CLASSIFICATION_TYPE":"U","RA_OF_ASC_NODE":"259.3899","MEAN_ELEMENT_THEORY":"SGP4","EPOCH":"2022-09-25T06:16:18.644160","ECCENTRICITY":"0.00015390","MEAN_MOTION":"15.06404437","ELEMENT_SET_NO":"999","OBJECT_TYPE":"PAYLOAD","MEAN_ANOMALY":"292.5806","REV_AT_EPOCH":"11446","OBJECT_NAME":"STARLINK-1666","MEAN_MOTION_DDOT":"0.0000000000000","TLE_LINE2":"2 46357  53.0543 259.3899 0001539  67.5346 292.5806 15.06404437114463","GP_ID":"213443236","TIME_SYSTEM":"UTC","MEAN_MOTION_DOT":"0.00002103","INCLINATION":"53.0543","RCS_SIZE":"LARGE","SITE":"AFETR","CENTER_NAME":"EARTH","PERIOD":"95.592","NORAD_CAT_ID":"46357","FILE":"3583351","ARG_OF_PERICENTER":"67.5346","OBJECT_ID":"2020-062AJ","LAUNCH_DATE":"2020-09-03","EPHEMERIS_TYPE":"0","PERIAPSIS":"546.134","REF_FRAME":"TEME"},{"PERIAPSIS":"546.185","REF_FRAME":"TEME","EPHEMERIS_TYPE":"0","OBJECT_ID":"2020-062AK","LAUNCH_DATE":"2020-09-03","ARG_OF_PERICENTER":"61.1972","NORAD_CAT_ID":"46358","FILE":"3583351","PERIOD":"95.592","SITE":"AFETR","CENTER_NAME":"EARTH","RCS_SIZE":"LARGE","TIME_SYSTEM":"UTC","INCLINATION":"53.0538","MEAN_MOTION_DOT":"-0.00000617","MEAN_MOTION_DDOT":"0.0000000000000","TLE_LINE2":"2 46358  53.0538 278.2980 0001488  61.1972 298.9166 15.06399286114225","GP_ID":"213441486","OBJECT_NAME":"STARLINK-1690","REV_AT_EPOCH":"11422","MEAN_ANOMALY":"298.9166","OBJECT_TYPE":"PAYLOAD","MEAN_MOTION":"15.06399286","EPOCH":"2022-09-25T12:09:17.694720","ECCENTRICITY":"0.00014880","ELEMENT_SET_NO":"999","MEAN_ELEMENT_THEORY":"SGP4","CLASSIFICATION_TYPE":"U","RA_OF_ASC_NODE":"278.2980","DECAY_DATE":null,"COUNTRY_CODE":"US","APOAPSIS":"548.246","SEMIMAJOR_AXIS":"6925.351","TLE_LINE1":"1 46358U 20062AK  22268.50645480 -.00000617  00000-0 -22551-4 0  9993","BSTAR":"-0.00002255100000"}];
